HST                     
1 20580U 90037B   24295.14668807  .00010940  00000+0  47915-3 0  9998
2 20580  28.4680 219.7512 0002781 333.3413  26.7037 15.20384608696463
